IRIDIUM 159             
1 43578U 18061K   24339.94178761  .00000053  00000+0  11979-4 0  9995
2 43578  86.3948 290.3955 0002179  88.6693 271.4752 14.34216424333221
IRIDIUM 180             
1 43922U 19002A   24339.94128013  .00000729  00000+0  25316-3 0  9998
2 43922  86.3997 227.2633 0002133  82.1516 277.9922 14.34220489308838
IRIDIUM 176             
1 43923U 19002B   24340.12455117  .00002700  00000+0  42394-3 0  9995
2 43923  86.6117 227.1950 0002980  82.8898 277.2658 14.72273341316999
IRIDIUM 168             
1 43924U 19002C   24339.93493660  .00000125  00000+0  37462-4 0  9998
2 43924  86.3998 227.3272 0002204  85.1585 274.9863 14.34219139308818
IRIDIUM 173             
1 43925U 19002D   24339.78272024  .00000035  00000+0  54379-5 0  9998
2 43925  86.4000 227.3032 0002157  81.0627 279.0813 14.34211979308777
IRIDIUM 169             
1 43926U 19002E   24339.88475928  .00001085  00000+0  34830-3 0  9992
2 43926  86.4226 258.8765 0003361  54.8964 305.2549 14.38611869309810
IRIDIUM 172             
1 43927U 19002F   24339.77637888  .00000713  00000+0  24742-3 0  9994
2 43927  86.3996 227.3117 0002149  86.0881 274.0560 14.34216744308784
IRIDIUM 175             
1 43928U 19002G   24340.11921512  .00000985  00000+0  15232-3 0  9990
2 43928  86.1531 190.7377 0001665  39.6143 320.5195 14.72228002316980
